TIANMU-1 12             
1 58646U 23205B   24154.86878071  .00005830  00000+0  31553-3 0  9997
2 58646  97.4026 180.2627 0011978  88.5639 271.6965 15.14957645 24335
TIANMU-1 13             
1 58647U 23205C   24154.90143904  .00005849  00000+0  31661-3 0  9993
2 58647  97.4053 180.2831 0011700  76.1938 284.0595 15.14950651 24338
TIANMU-1 14             
1 58648U 23205D   24154.88534031  .00006307  00000+0  34105-3 0  9992
2 58648  97.3979 180.1461 0012183  76.5385 283.7205 15.14955625 24339
TIANMU-1 19             
1 58660U 23208A   24154.89164726  .00006279  00000+0  34054-3 0  9991
2 58660  97.4098 267.6418 0010315  61.3824 298.8445 15.14867303 24006
TIANMU-1 20             
1 58661U 23208B   24154.90271386  .00006347  00000+0  33644-3 0  9995
2 58661  97.4026 267.6228 0011319  70.0004 290.2447 15.15666741 24012
TIANMU-1 21             
1 58662U 23208C   24154.90399383  .00006950  00000+0  35917-3 0  9999
2 58662  97.4065 267.8563 0010942  70.3953 289.8461 15.16536673 24029
TIANMU-1 22             
1 58663U 23208D   24154.90789384  .00006470  00000+0  35122-3 0  9999
2 58663  97.4084 267.7369 0006737  82.9869 277.2129 15.14849511 24013
TIANMU-1 15             
1 58700U 24004A   24154.88230887  .00005523  00000+0  30003-3 0  9993
2 58700  97.4621 336.2549 0011586 102.0307 258.2224 15.14858563 22608
TIANMU-1 16             
1 58701U 24004B   24154.93158147  .00006074  00000+0  32928-3 0  9998
2 58701  97.4547 336.1963 0011471 106.8043 253.4448 15.14892378 22615
TIANMU-1 17             
1 58702U 24004C   24154.91626512  .00006356  00000+0  34478-3 0  9998
2 58702  97.4591 336.3030 0009343 101.9514 258.2766 15.14870917 22606
TIANMU-1 18             
1 58703U 24004D   24154.89984843  .00005621  00000+0  30507-3 0  9993
2 58703  97.4608 336.3547 0008626  93.8692 266.3527 15.14909464 22603
INSAT-3DS               
1 58990U 24033A   24154.86438122 -.00000161  00000+0  00000+0 0  9990
2 58990   0.1643  91.3883 0011592 358.6142 195.9891  1.00271458   826
METEOR-M2 4             
1 59051U 24039A   24154.92366222  .00000055  00000+0  44141-4 0  9993
2 59051  98.5968 117.1689 0007365 157.2036 202.9471 14.22228996 13469
